EMISAT                  
1 44078U 19018A   26140.97573924  .00000030  00000+0  21948-4 0  9991
2 44078  98.4654 199.9220 0017380 302.0411  57.9091 14.43672413376139
JILIN-1 GAOFEN 3A       
1 44312U 19032C   26140.89994558  .00006912  00000+0  22933-3 0  9998
2 44312  44.9728 147.0394 0003852 155.6902 204.4164 15.31959359383650
WT 1B                   
1 44316U 19032G   26140.65623302  .00009155  00000+0  35356-3 0  9997
2 44316  44.9727 211.1485 0007542  92.0876 268.0870 15.26606289382879
PROX-1                  
1 44339U 19036A   26140.73844849  .00009117  00000+0  89616-3 0  9992
2 44339  23.9960 297.5096 0006828  73.1397 286.9851 14.89887413369376
NPSAT1                  
1 44340U 19036B   26140.91079805  .00003698  00000+0  50999-3 0  9996
2 44340  24.0000  35.3661 0007584 261.4897  98.4740 14.74292893368466
FORMOSAT 7-3            
1 44343U 19036E   26140.95331514  .00003185  00000+0  17235-3 0  9998
2 44343  24.0006   5.9475 0000637 345.0772  14.9712 15.09568548379123
FORMOSAT 7-1            
1 44349U 19036L   26140.90803172  .00001608  00000+0  11255-3 0  9997
2 44349  23.9970 216.2862 0000588 189.4541 170.5949 14.96378290380562
FORMOSAT 7-4            
1 44350U 19036M   26140.59700642  .00001700  00000+0  12047-3 0  9995
2 44350  23.9984 280.4875 0000839 215.5797 144.4648 14.96372183379939
FORMOSAT 7-2            
1 44351U 19036N   26140.88610958  .00001821  00000+0  13092-3 0  9993
2 44351  23.9994 332.8519 0000399 212.3886 147.6590 14.96370643379494
FORMOSAT 7-6            
1 44353U 19036Q   26140.41921173  .00001517  00000+0  10471-3 0  9998
2 44353  23.9962 156.8147 0001372 127.6420 232.4205 14.96377011377654
FORMOSAT 7-5            
1 44358U 19036V   26140.52992617  .00001635  00000+0  11486-3 0  9994
2 44358  23.9981  94.8162 0000345 173.5639 186.4867 14.96377959378204
METEOR-M2 2             
1 44387U 19038A   26140.98908519 -.00000038  00000+0  33039-5 0  9993
2 44387  98.9141 127.8754 0002399  90.5764 269.5689 14.24357510357426
GLOBAL-4                
1 44499U 19054E   26140.97970493  .00032896  00000+0  37668-3 0  9990
2 44499  45.0077  33.0637 0004456 172.5803 187.5160 15.61579282376103
ZY-1 02D                
1 44528U 19059A   26140.95423437 -.00000086  00000+0 -15487-4 0  9991
2 44528  98.3197 203.4009 0001365 149.0634 211.0633 14.35449639350431
TAURUS-1 (JINNIUZUO 1)  
1 44530U 19059C   26140.98360451  .00004751  00000+0  76915-3 0  9996
2 44530  98.6401 304.1337 0009033  45.3295 314.8645 14.71765087354649
ZHUHAI-1 03B            
1 44536U 19060C   26140.99713384  .00020178  00000+0  33087-3 0  9996
2 44536  97.5513 297.3339 0009243  63.1735 297.0462 15.52443832372103
ZHUHAI-1 03C            
1 44537U 19060D   26140.98959512  .00389490  67098-4  74609-3 0  9996
2 44537  97.5411 310.4508 0006456 290.3653  69.6932 16.00521465372919
ZHUHAI-1 03D            
1 44538U 19060E   26140.96120588  .00020186  00000+0  38625-3 0  9995
2 44538  97.5372 289.6574 0007712  50.7652 309.4282 15.48071735371866
ZHUHAI-1 03E            
1 44539U 19060F   26140.96348905  .00012151  00000+0  30555-3 0  9998
2 44539  97.5588 289.9927 0007262 118.3549 241.8430 15.40082160371575
GAOFEN-7                
1 44703U 19072A   26140.97099847  .00002728  00000+0  12421-3 0  9994
2 44703  97.2438 203.4577 0017965 128.1798 232.1060 15.21362832363509
JILIN-1 GAOFEN 2A       
1 44777U 19075A   26140.95546020  .00010089  00000+0  26760-3 0  9996
2 44777  97.4960 224.1263 0006997 168.3956 191.7452 15.38493915360696
NINGXIA-1 1             
1 44779U 19076A   26140.96104325 -.00000088  00000+0  27117-4 0  9995
2 44779  45.0063 301.5204 0010685  26.5137 333.6242 14.02035953334038
NINGXIA-1 5             
1 44783U 19076E   26140.90400956 -.00000277  00000+0 -95791-4 0  9997
2 44783  45.0064 301.1279 0010647  15.5765 344.5395 14.02083220333944
KL-ALPHA A              
1 44785U 19077A   26140.96617603  .00000069  00000+0  80862-4 0  9995
2 44785  88.9264 225.5386 0011099 177.2325 182.8893 13.56039894322043
CARTOSAT-3              
1 44804U 19081A   26140.95578529  .00001710  00000+0  84302-4 0  9991
2 44804  97.4315 203.2566 0011156 242.6069 117.4031 15.19234282359335
JILIN-1 GAOFEN 2B       
1 44836U 19086A   26140.90275055  .00004124  00000+0  19212-3 0  9993
2 44836  97.4885 213.0706 0015359  59.7060 300.5693 15.20362366356348
TIANQIN 1 (CAS-6)       
1 44879U 19093A   26140.98873215  .00002358  00000+0  21908-3 0  9990
2 44879  97.7803 225.0284 0012434 138.0162 222.2014 14.95286331347982
ETRSS-1                 
1 44880U 19093B   26140.93627007  .00001803  00000+0  16708-3 0  9999
2 44880  97.7826 225.4125 0012452 138.3083 221.9089 14.95694835347982
