OBJECT_NAME,OBJECT_ID,EPOCH,MEAN_MOTION,ECCENTRICITY,INCLINATION,RA_OF_ASC_NODE,ARG_OF_PERICENTER,MEAN_ANOMALY,EPHEMERIS_TYPE,CLASSIFICATION_TYPE,NORAD_CAT_ID,ELEMENT_SET_NO,REV_AT_EPOCH,BSTAR,MEAN_MOTION_DOT,MEAN_MOTION_DDOT
EMISAT,2019-018A,2026-05-20T23:25:03.870336,14.43672413,.00173807,98.4654,199.9220,302.0411,57.9091,0,U,44078,999,37613,.21947877E-4,.3E-6,0
JILIN-1 GAOFEN 3A,2019-032C,2026-05-20T21:35:55.298112,15.31959359,.00038525,44.9728,147.0394,155.6902,204.4164,0,U,44312,999,38365,.22933221E-3,.6912E-4,0
WT 1B,2019-032G,2026-05-20T15:44:58.532928,15.26606289,.00075426,44.9727,211.1485,92.0876,268.0870,0,U,44316,999,38287,.35356375E-3,.9155E-4,0
PROX-1,2019-036A,2026-05-20T17:43:21.949536,14.89887413,.00068285,23.9960,297.5096,73.1397,286.9851,0,U,44339,999,36937,.89615617E-3,.9117E-4,0
NPSAT1,2019-036B,2026-05-20T21:51:32.951520,14.74292893,.00075845,24.0000,35.3661,261.4897,98.4740,0,U,44340,999,36846,.50998544E-3,.3698E-4,0
FORMOSAT 7-3,2019-036E,2026-05-20T22:52:46.428096,15.09568548,.00006379,24.0006,5.9475,345.0772,14.9712,0,U,44343,999,37912,.17234623E-3,.3185E-4,0
FORMOSAT 7-1,2019-036L,2026-05-20T21:47:33.940608,14.96378290,.00005887,23.9970,216.2862,189.4541,170.5949,0,U,44349,999,38056,.11254709E-3,.1608E-4,0
FORMOSAT 7-4,2019-036M,2026-05-20T14:19:41.354688,14.96372183,.00008393,23.9984,280.4875,215.5797,144.4648,0,U,44350,999,37993,.12047164E-3,.17E-4,0
FORMOSAT 7-2,2019-036N,2026-05-20T21:15:59.867712,14.96370643,.00003993,23.9994,332.8519,212.3886,147.6590,0,U,44351,999,37949,.13091943E-3,.1821E-4,0
FORMOSAT 7-6,2019-036Q,2026-05-20T10:03:39.893472,14.96377011,.00013721,23.9962,156.8147,127.6420,232.4205,0,U,44353,999,37765,.10470985E-3,.1517E-4,0
FORMOSAT 7-5,2019-036V,2026-05-20T12:43:05.621088,14.96377959,.00003458,23.9981,94.8162,173.5639,186.4867,0,U,44358,999,37820,.11486347E-3,.1635E-4,0
METEOR-M2 2,2019-038A,2026-05-20T23:44:16.960416,14.24357510,.00023995,98.9141,127.8754,90.5764,269.5689,0,U,44387,999,35742,.3303924E-5,-.38E-6,0
GLOBAL-4,2019-054E,2026-05-20T23:30:46.505952,15.61579282,.00044569,45.0077,33.0637,172.5803,187.5160,0,U,44499,999,37610,.37667681E-3,.32896E-3,0
ZY-1 02D,2019-059A,2026-05-20T22:54:05.849568,14.35449639,.00013656,98.3197,203.4009,149.0634,211.0633,0,U,44528,999,35043,-.15487221E-4,-.86E-6,0
TAURUS-1 (JINNIUZUO 1),2019-059C,2026-05-20T23:36:23.429664,14.71765087,.0009033,98.6401,304.1337,45.3295,314.8645,0,U,44530,999,35464,.76915401E-3,.4751E-4,0
ZHUHAI-1 03B,2019-060C,2026-05-20T23:55:52.363776,15.52443832,.00092433,97.5513,297.3339,63.1735,297.0462,0,U,44536,999,37210,.33087292E-3,.20178E-3,0
ZHUHAI-1 03C,2019-060D,2026-05-20T23:45:01.018368,16.00521465,.00064568,97.5411,310.4508,290.3653,69.6932,0,U,44537,999,37291,.74609061E-3,.38949E-2,.6709799E-4
ZHUHAI-1 03D,2019-060E,2026-05-20T23:04:08.188032,15.48071735,.00077126,97.5372,289.6574,50.7652,309.4282,0,U,44538,999,37186,.38624808E-3,.20186E-3,0
ZHUHAI-1 03E,2019-060F,2026-05-20T23:07:25.453920,15.40082160,.00072624,97.5588,289.9927,118.3549,241.8430,0,U,44539,999,37157,.3055521E-3,.12151E-3,0
GAOFEN-7,2019-072A,2026-05-20T23:18:14.267808,15.21362832,.00179658,97.2438,203.4577,128.1798,232.1060,0,U,44703,999,36350,.12421477E-3,.2728E-4,0
JILIN-1 GAOFEN 2A,2019-075A,2026-05-20T22:55:51.761280,15.38493915,.00069974,97.4960,224.1263,168.3956,191.7452,0,U,44777,999,36069,.26759513E-3,.10089E-3,0
NINGXIA-1 1,2019-076A,2026-05-20T23:03:54.136800,14.02035953,.00106859,45.0063,301.5204,26.5137,333.6242,0,U,44779,999,33403,.27116713E-4,-.88E-6,0
NINGXIA-1 5,2019-076E,2026-05-20T21:41:46.425984,14.02083220,.00106477,45.0064,301.1279,15.5765,344.5395,0,U,44783,999,33394,-.95791024E-4,-.277E-5,0
KL-ALPHA A,2019-077A,2026-05-20T23:11:17.608992,13.56039894,.00110997,88.9264,225.5386,177.2325,182.8893,0,U,44785,999,32204,.80862119E-4,.69E-6,0
CARTOSAT-3,2019-081A,2026-05-20T22:56:19.849056,15.19234282,.00111562,97.4315,203.2566,242.6069,117.4031,0,U,44804,999,35933,.8430164E-4,.171E-4,0
JILIN-1 GAOFEN 2B,2019-086A,2026-05-20T21:39:57.647520,15.20362366,.00153596,97.4885,213.0706,59.7060,300.5693,0,U,44836,999,35634,.19212246E-3,.4124E-4,0
TIANQIN 1 (CAS-6),2019-093A,2026-05-20T23:43:46.457760,14.95286331,.0012434,97.7803,225.0284,138.0162,222.2014,0,U,44879,999,34798,.21908333E-3,.2358E-4,0
ETRSS-1,2019-093B,2026-05-20T22:28:13.734048,14.95694835,.00124521,97.7826,225.4125,138.3083,221.9089,0,U,44880,999,34798,.16707823E-3,.1803E-4,0
